{
  "type": "FeatureCollection",
  "features": [
    {
      "type": "Feature",
      "properties": {
        "norad_id": 66561,
        "name": "STARLINK-35305",
        "group": "last-30-days",
        "lat": 32.973618252704334,
        "lon": 84.28912990534434,
        "alt_km": 434.95908665846764,
        "timestamp": "2025-12-26T13:39:17.662888+00:00",
        "meta_object_name": "STARLINK-35305",
        "meta_object_id": "2025-268E",
        "meta_epoch": "2025-12-26T06:00:02.999808",
        "meta_mean_motion": 15.43673902,
        "meta_eccentricity": 0.0001329,
        "meta_inclination": 43.0008,
        "meta_ra_of_asc_node": 42.0125,
        "meta_arg_of_pericenter": 279.8945,
        "meta_mean_anomaly": 159.5115,
        "meta_ephemeris_type": 0,
        "meta_classification_type": "U",
        "meta_norad_cat_id": 66561,
        "meta_element_set_no": 999,
        "meta_rev_at_epoch": 606,
        "meta_bstar": -0.049307854,
        "meta_mean_motion_dot": -0.02025367,
        "meta_mean_motion_ddot": 0,
        "tle_line1": "1 66561U 25268E   25360.25003472 -.02025367  00000+0 -49308-1 0  9997",
        "tle_line2": "2 66561  43.0008  42.0125 0001329 279.8945 159.5115 15.43673902  6063"
      },
      "geometry": {
        "type": "Point",
        "coordinates": [
          84.28912990534434,
          32.973618252704334
        ]
      }
    },
    {
      "type": "Feature",
      "properties": {
        "norad_id": 66562,
        "name": "STARLINK-35579",
        "group": "last-30-days",
        "lat": 26.718592723903633,
        "lon": 72.89077377480443,
        "alt_km": 438.3461302566011,
        "timestamp": "2025-12-26T13:39:17.662902+00:00",
        "meta_object_name": "STARLINK-35579",
        "meta_object_id": "2025-268F",
        "meta_epoch": "2025-12-26T06:00:02.999808",
        "meta_mean_motion": 15.42839817,
        "meta_eccentricity": 0.00014358,
        "meta_inclination": 43.0004,
        "meta_ra_of_asc_node": 42.0386,
        "meta_arg_of_pericenter": 278.2765,
        "meta_mean_anomaly": 150.3963,
        "meta_ephemeris_type": 0,
        "meta_classification_type": "U",
        "meta_norad_cat_id": 66562,
        "meta_element_set_no": 999,
        "meta_rev_at_epoch": 606,
        "meta_bstar": -0.051019957,
        "meta_mean_motion_dot": -0.02035695,
        "meta_mean_motion_ddot": 0,
        "tle_line1": "1 66562U 25268F   25360.25003472 -.02035695  00000+0 -51020-1 0  9997",
        "tle_line2": "2 66562  43.0004  42.0386 0001435 278.2765 150.3963 15.42839817  6068"
      },
      "geometry": {
        "type": "Point",
        "coordinates": [
          72.89077377480443,
          26.718592723903633
        ]
      }
    },
    {
      "type": "Feature",
      "properties": {
        "norad_id": 66563,
        "name": "STARLINK-35437",
        "group": "last-30-days",
        "lat": 37.832672021732456,
        "lon": 96.5868478902108,
        "alt_km": 431.83328080981846,
        "timestamp": "2025-12-26T13:39:17.662914+00:00",
        "meta_object_name": "STARLINK-35437",
        "meta_object_id": "2025-268G",
        "meta_epoch": "2025-12-26T06:00:02.999808",
        "meta_mean_motion": 15.44512358,
        "meta_eccentricity": 0.00013495,
        "meta_inclination": 43.0005,
        "meta_ra_of_asc_node": 41.987,
        "meta_arg_of_pericenter": 282.5619,
        "meta_mean_anomaly": 167.0143,
        "meta_ephemeris_type": 0,
        "meta_classification_type": "U",
        "meta_norad_cat_id": 66563,
        "meta_element_set_no": 999,
        "meta_rev_at_epoch": 601,
        "meta_bstar": -0.047952308,
        "meta_mean_motion_dot": -0.02026982,
        "meta_mean_motion_ddot": 0,
        "tle_line1": "1 66563U 25268G   25360.25003472 -.02026982  00000+0 -47952-1 0  9996",
        "tle_line2": "2 66563  43.0005  41.9870 0001349 282.5619 167.0143 15.44512358  6016"
      },
      "geometry": {
        "type": "Point",
        "coordinates": [
          96.5868478902108,
          37.832672021732456
        ]
      }
    },
    {
      "type": "Feature",
      "properties": {
        "norad_id": 66564,
        "name": "STARLINK-35358",
        "group": "last-30-days",
        "lat": 41.116056209319204,
        "lon": 109.61328247910528,
        "alt_km": 429.04449893940637,
        "timestamp": "2025-12-26T13:39:17.662928+00:00",
        "meta_object_name": "STARLINK-35358",
        "meta_object_id": "2025-268H",
        "meta_epoch": "2025-12-26T06:00:02.999808",
        "meta_mean_motion": 15.453586,
        "meta_eccentricity": 0.00013403,
        "meta_inclination": 43.0002,
        "meta_ra_of_asc_node": 41.9619,
        "meta_arg_of_pericenter": 277.9085,
        "meta_mean_anomaly": 181.2798,
        "meta_ephemeris_type": 0,
        "meta_classification_type": "U",
        "meta_norad_cat_id": 66564,
        "meta_element_set_no": 999,
        "meta_rev_at_epoch": 606,
        "meta_bstar": -0.047206571,
        "meta_mean_motion_dot": -0.0205153,
        "meta_mean_motion_ddot": 0,
        "tle_line1": "1 66564U 25268H   25360.25003472 -.02051530  00000+0 -47207-1 0  9997",
        "tle_line2": "2 66564  43.0002  41.9619 0001340 277.9085 181.2798 15.45358600  6069"
      },
      "geometry": {
        "type": "Point",
        "coordinates": [
          109.61328247910528,
          41.116056209319204
        ]
      }
    },
    {
      "type": "Feature",
      "properties": {
        "norad_id": 66565,
        "name": "STARLINK-35893",
        "group": "last-30-days",
        "lat": 42.75460567979734,
        "lon": 122.90086571489819,
        "alt_km": 426.3687341707446,
        "timestamp": "2025-12-26T13:39:17.662939+00:00",
        "meta_object_name": "STARLINK-35893",
        "meta_object_id": "2025-268J",
        "meta_epoch": "2025-12-26T06:00:02.999808",
        "meta_mean_motion": 15.4619527,
        "meta_eccentricity": 0.0001378,
        "meta_inclination": 43.0003,
        "meta_ra_of_asc_node": 41.9395,
        "meta_arg_of_pericenter": 285.167,
        "meta_mean_anomaly": 183.0707,
        "meta_ephemeris_type": 0,
        "meta_classification_type": "U",
        "meta_norad_cat_id": 66565,
        "meta_element_set_no": 999,
        "meta_rev_at_epoch": 590,
        "meta_bstar": -0.045835414,
        "meta_mean_motion_dot": -0.02050774,
        "meta_mean_motion_ddot": 0,
        "tle_line1": "1 66565U 25268J   25360.25003472 -.02050774  00000+0 -45835-1 0  9992",
        "tle_line2": "2 66565  43.0003  41.9395 0001378 285.1670 183.0707 15.46195270  5909"
      },
      "geometry": {
        "type": "Point",
        "coordinates": [
          122.90086571489819,
          42.75460567979734
        ]
      }
    },
    {
      "type": "Feature",
      "properties": {
        "norad_id": 66566,
        "name": "STARLINK-35871",
        "group": "last-30-days",
        "lat": 42.96240377427711,
        "lon": 132.1126265773709,
        "alt_km": 424.80958090565855,
        "timestamp": "2025-12-26T13:39:17.662950+00:00",
        "meta_object_name": "STARLINK-35871",
        "meta_object_id": "2025-268K",
        "meta_epoch": "2025-12-26T06:00:02.999808",
        "meta_mean_motion": 15.4672404,
        "meta_eccentricity": 0.00013562,
        "meta_inclination": 43.0009,
        "meta_ra_of_asc_node": 41.924,
        "meta_arg_of_pericenter": 284.8402,
        "meta_mean_anomaly": 189.5451,
        "meta_ephemeris_type": 0,
        "meta_classification_type": "U",
        "meta_norad_cat_id": 66566,
        "meta_element_set_no": 999,
        "meta_rev_at_epoch": 596,
        "meta_bstar": -0.044936175,
        "meta_mean_motion_dot": -0.02048271,
        "meta_mean_motion_ddot": 0,
        "tle_line1": "1 66566U 25268K   25360.25003472 -.02048271  00000+0 -44936-1 0  9993",
        "tle_line2": "2 66566  43.0009  41.9240 0001356 284.8402 189.5451 15.46724040  5966"
      },
      "geometry": {
        "type": "Point",
        "coordinates": [
          132.1126265773709,
          42.96240377427711
        ]
      }
    },
    {
      "type": "Feature",
      "properties": {
        "norad_id": 66567,
        "name": "STARLINK-35825",
        "group": "last-30-days",
        "lat": 22.599479087406394,
        "lon": -166.59912073306398,
        "alt_km": 394.78208564188026,
        "timestamp": "2025-12-26T13:39:17.662963+00:00",
        "meta_object_name": "STARLINK-35825",
        "meta_object_id": "2025-268L",
        "meta_epoch": "2025-12-24T05:35:52.806912",
        "meta_mean_motion": 15.56426808,
        "meta_eccentricity": 0.00033868,
        "meta_inclination": 43.0005,
        "meta_ra_of_asc_node": 53.7242,
        "meta_arg_of_pericenter": 293.6521,
        "meta_mean_anomaly": 66.3986,
        "meta_ephemeris_type": 0,
        "meta_classification_type": "U",
        "meta_norad_cat_id": 66567,
        "meta_element_set_no": 999,
        "meta_rev_at_epoch": 641,
        "meta_bstar": 0.0017686293,
        "meta_mean_motion_dot": 0.00130148,
        "meta_mean_motion_ddot": 0,
        "tle_line1": "1 66567U 25268L   25358.23325008  .00130148  00000+0  17686-2 0  9995",
        "tle_line2": "2 66567  43.0005  53.7242 0003386 293.6521  66.3986 15.56426808  6419"
      },
      "geometry": {
        "type": "Point",
        "coordinates": [
          -166.59912073306398,
          22.599479087406394
        ]
      }
    }
  ]
}